JCSAT-18 (KACIFIC 1)    
1 44868U 19091A   26193.46414652 -.00000200  00000+0  00000+0 0  9994
2 44868   0.0546 230.4360 0000537  12.9684   4.0409  1.00271452 24263
ELEKTRO-L 3             
1 44903U 19095A   26193.50677350 -.00000096  00000+0  00000+0 0  9992
2 44903   0.3185  82.1564 0001160  18.7819  87.8863  1.00271135 23967
SHIJIAN-20 (SJ-20)      
1 44910U 19097A   26193.28665225  .00000133  00000+0  00000+0 0  9996
2 44910   4.9799  74.7562 0015265  57.1903 306.2473  1.00267668 23953
TJS-5                   
1 44978U 20002A   26193.51293608 -.00000341  00000+0  00000+0 0  9998
2 44978   0.0562  73.9230 0007684 340.2388 168.3996  1.00269367 23960
GSAT-30                 
1 45026U 20005A   26193.43685756 -.00000163  00000+0  00000+0 0  9998
2 45026   0.0407  92.1334 0003241   2.0456  76.4125  1.00270949 23764
EUTELSAT KONNECT        
1 45027U 20005B   26193.35056605  .00000050  00000+0  00000+0 0  9999
2 45027   0.0681  93.4324 0001958 147.8607 182.3613  1.00267903 24587
JCSAT-17                
1 45245U 20013A   26193.36892109 -.00000310  00000+0  00000+0 0  9998
2 45245   5.3921 357.0994 0002837 128.5708  73.4166  1.00270056 23485
GEO-KOMPSAT-2B          
1 45246U 20013B   26193.61503384 -.00000343  00000+0  00000+0 0  9997
2 45246   0.0493 225.9066 0000741  11.7550  42.5120  1.00271125 23536
BEIDOU-3 G2             
1 45344U 20017A   26193.65009366 -.00000142  00000+0  00000+0 0  9992
2 45344   2.9130  47.6851 0002020  59.8996 137.0297  1.00269363 23518
AEHF-6 (USA 298)        
1 45465U 20022B   26193.52336559 -.00000293  00000+0  00000+0 0  9992
2 45465   2.4944 301.4612 0042079  15.3894 299.7392  1.00272170 23262
BEIDOU-3 G3             
1 45807U 20040A   26193.65616035 -.00000355  00000+0  00000+0 0  9995
2 45807   2.5062  67.4743 0001738 326.7513 242.9772  1.00265109 22324
APSTAR-6D               
1 45863U 20045A   26193.30433233 -.00000316  00000+0  00000+0 0  9998
2 45863   0.0438  92.2085 0001231  21.9370  59.6266  1.00269370 22116
KOREASAT 116            
1 45920U 20048A   26193.52892066 -.00000361  00000+0  00000+0 0  9992
2 45920   0.0145  31.1996 0000738  91.8006 114.0250  1.00267933 21897
EXPRESS 103             
1 45985U 20053A   26193.65338700 -.00000279  00000+0  00000+0 0  9991
2 45985   0.0323 267.0600 0000789 194.9100 160.2824  1.00267577 21900
EXPRESS 80              
1 45986U 20053B   26192.97375520  .00000000  00000+0  00000+0 0  9998
2 45986   0.0195  29.3586 0011315 317.9483  12.6646  1.00512209 21882
BSAT-4B                 
1 46112U 20056A   26193.51345608 -.00000349  00000+0  00000+0 0  9995
2 46112   0.0458 184.0550 0004145 307.2893  93.7262  1.00269541 21642
MEV-2                   
1 46113U 20056B   26193.42013082 -.00000010  00000+0  00000+0 0  9999
2 46113   0.0535 254.9174 0000536 349.3826 196.2509  1.00271018 80898
GALAXY 30 (G-30)        
1 46114U 20056C   26193.44350079  .00000038  00000+0  00000+0 0  9991
2 46114   0.0038  98.3783 0001947  16.1890 210.4202  1.00270957 21547
GAOFEN-13 01            
1 46610U 20071A   26193.52892066 -.00000362  00000+0  00000+0 0  9996
2 46610   0.4610  86.1749 0045224 120.5664  32.3198  1.00266974 21178
TIANTONG-1 2            
1 46916U 20082A   26193.65902037 -.00000355  00000+0  00000+0 0  9993
2 46916   0.7607 331.2428 0001296 144.1260 177.3454  1.00267792 20903
LUCAS (JDRS-1)          
1 47202U 20089A   26193.51942192 -.00000235  00000+0  00000+0 0  9997
2 47202   0.0363 279.6625 0001612 183.6261 104.9174  1.00271286 20671
SXM-7                   
1 47240U 20096A   26193.40357740 -.00000204  00000+0  00000+0 0  9990
2 47240   0.0241  99.5952 0003686  19.3374 231.4990  1.00275481  7693
CMS-01                  
1 47256U 20099A   26193.43685756 -.00000163  00000+0  00000+0 0  9998
2 47256   0.0677  91.2137 0003491 176.3681 263.0094  1.00271160 20451
TURKSAT 5A              
1 47306U 21001A   26193.49767345  .00000155  00000+0  00000+0 0  9999
2 47306   0.0120  63.1372 0000316 220.7124 216.6234  1.00270714 20227
TIANTONG-1 3            
1 47321U 21003A   26193.65044032 -.00000152  00000+0  00000+0 0  9995
2 47321   1.7374 340.8360 0003052 139.7975 125.6071  1.00270719 20210
TJS-6                   
1 47613U 21010A   26193.59828745  .00000043  00000+0  00000+0 0  9999
2 47613   0.1885 262.0793 0003064 239.5422 182.7053  1.00271923 20063
SBIRS GEO-5 (USA 315)   
1 48618U 21042A   26193.43893757 -.00000261  00000+0  00000+0 0  9991
2 48618   5.0725 329.3088 0001413 153.9410  58.9070  1.00270526 19027
FENGYUN 4B              
1 48808U 21047A   26193.36980613 -.00000327  00000+0  00000+0 0  9990
2 48808   0.2126  79.6470 0005757 272.9604 175.3551  1.00264185 18821
SXM-8                   
1 48838U 21049A   26193.11834199 -.00000202  00000+0  00000+0 0  9997
2 48838   0.0175  40.4195 0005364 350.2379 216.8129  1.00270972 18833
TIANLIAN 1-05           
1 49011U 21063A   26193.28110554  .00000108  00000+0  00000+0 0  9991
2 49011   1.6560  80.4869 0000946  91.8485 235.8831  1.00271778 18321
STAR ONE D2             
1 49055U 21069A   26193.40652407  .00000000  00000+0  00000+0 0  9998
2 49055   0.0120  12.5852 0002706 114.5090 239.4732  1.00275631 18190
EUTELSAT QUANTUM        
1 49056U 21069B   26193.50114014  .00000127  00000+0  00000+0 0  9997
2 49056   0.0177 329.0468 0001983 138.5574  50.8833  1.00269928 18189
