OBJECT_NAME,OBJECT_ID,EPOCH,MEAN_MOTION,ECCENTRICITY,INCLINATION,RA_OF_ASC_NODE,ARG_OF_PERICENTER,MEAN_ANOMALY,EPHEMERIS_TYPE,CLASSIFICATION_TYPE,NORAD_CAT_ID,ELEMENT_SET_NO,REV_AT_EPOCH,BSTAR,MEAN_MOTION_DOT,MEAN_MOTION_DDOT
JCSAT-18 (KACIFIC 1),2019-091A,2026-07-12T11:08:22.259328,1.00271452,.00005374,0.0546,230.4360,12.9684,4.0409,0,U,44868,999,2426,0,-.2E-5,0
ELEKTRO-L 3,2019-095A,2026-07-12T12:09:45.230400,1.00271135,.00011607,0.3185,82.1564,18.7819,87.8863,0,U,44903,999,2396,0,-.96E-6,0
SHIJIAN-20 (SJ-20),2019-097A,2026-07-12T06:52:46.754400,1.00267668,.0015265,4.9799,74.7562,57.1903,306.2473,0,U,44910,999,2395,0,.133E-5,0
TJS-5,2020-002A,2026-07-12T12:18:37.677312,1.00269367,.0007684,0.0562,73.9230,340.2388,168.3996,0,U,44978,999,2396,0,-.341E-5,0
GSAT-30,2020-005A,2026-07-12T10:29:04.493184,1.00270949,.00032418,0.0407,92.1334,2.0456,76.4125,0,U,45026,999,2376,0,-.163E-5,0
EUTELSAT KONNECT,2020-005B,2026-07-12T08:24:48.906720,1.00267903,.0001958,0.0681,93.4324,147.8607,182.3613,0,U,45027,999,2458,0,.5E-6,0
JCSAT-17,2020-013A,2026-07-12T08:51:14.782176,1.00270056,.00028371,5.3921,357.0994,128.5708,73.4166,0,U,45245,999,2348,0,-.31E-5,0
GEO-KOMPSAT-2B,2020-013B,2026-07-12T14:45:38.923776,1.00271125,.00007415,0.0493,225.9066,11.7550,42.5120,0,U,45246,999,2353,0,-.343E-5,0
BEIDOU-3 G2,2020-017A,2026-07-12T15:36:08.092224,1.00269363,.00020202,2.9130,47.6851,59.8996,137.0297,0,U,45344,999,2351,0,-.142E-5,0
AEHF-6 (USA 298),2020-022B,2026-07-12T12:33:38.786976,1.00272170,.0042079,2.4944,301.4612,15.3894,299.7392,0,U,45465,999,2326,0,-.293E-5,0
BEIDOU-3 G3,2020-040A,2026-07-12T15:44:52.254240,1.00265109,.00017389,2.5062,67.4743,326.7513,242.9772,0,U,45807,999,2232,0,-.355E-5,0
APSTAR-6D,2020-045A,2026-07-12T07:18:14.313312,1.00269370,.0001231,0.0438,92.2085,21.9370,59.6266,0,U,45863,999,2211,0,-.316E-5,0
KOREASAT 116,2020-048A,2026-07-12T12:41:38.745024,1.00267933,.00007389,0.0145,31.1996,91.8006,114.0250,0,U,45920,999,2189,0,-.361E-5,0
EXPRESS 103,2020-053A,2026-07-12T15:40:52.636800,1.00267577,.0000789,0.0323,267.0600,194.9100,160.2824,0,U,45985,999,2190,0,-.279E-5,0
EXPRESS 80,2020-053B,2026-07-11T23:22:12.449280,1.00512209,.00113152,0.0195,29.3586,317.9483,12.6646,0,U,45986,999,2188,0,0,0
BSAT-4B,2020-056A,2026-07-12T12:19:22.605312,1.00269541,.00041454,0.0458,184.0550,307.2893,93.7262,0,U,46112,999,2164,0,-.349E-5,0
MEV-2,2020-056B,2026-07-12T10:04:59.302848,1.00271018,.00005363,0.0535,254.9174,349.3826,196.2509,0,U,46113,999,8089,0,-.1E-6,0
GALAXY 30 (G-30),2020-056C,2026-07-12T10:38:38.468256,1.00270957,.00019473,0.0038,98.3783,16.1890,210.4202,0,U,46114,999,2154,0,.38E-6,0
GAOFEN-13 01,2020-071A,2026-07-12T12:41:38.745024,1.00266974,.0045224,0.4610,86.1749,120.5664,32.3198,0,U,46610,999,2117,0,-.362E-5,0
TIANTONG-1 2,2020-082A,2026-07-12T15:48:59.359968,1.00267792,.00012968,0.7607,331.2428,144.1260,177.3454,0,U,46916,999,2090,0,-.355E-5,0
LUCAS (JDRS-1),2020-089A,2026-07-12T12:27:58.053888,1.00271286,.0001612,0.0363,279.6625,183.6261,104.9174,0,U,47202,999,2067,0,-.235E-5,0
SXM-7,2020-096A,2026-07-12T09:41:09.087360,1.00275481,.00036869,0.0241,99.5952,19.3374,231.4990,0,U,47240,999,769,0,-.204E-5,0
CMS-01,2020-099A,2026-07-12T10:29:04.493184,1.00271160,.00034915,0.0677,91.2137,176.3681,263.0094,0,U,47256,999,2045,0,-.163E-5,0
TURKSAT 5A,2021-001A,2026-07-12T11:56:38.986080,1.00270714,.00003169,0.0120,63.1372,220.7124,216.6234,0,U,47306,999,2022,0,.155E-5,0
TIANTONG-1 3,2021-003A,2026-07-12T15:36:38.043648,1.00270719,.00030529,1.7374,340.8360,139.7975,125.6071,0,U,47321,999,2021,0,-.152E-5,0
TJS-6,2021-010A,2026-07-12T14:21:32.035680,1.00271923,.00030646,0.1885,262.0793,239.5422,182.7053,0,U,47613,999,2006,0,.43E-6,0
SBIRS GEO-5 (USA 315),2021-042A,2026-07-12T10:32:04.206048,1.00270526,.0001413,5.0725,329.3088,153.9410,58.9070,0,U,48618,999,1902,0,-.261E-5,0
FENGYUN 4B,2021-047A,2026-07-12T08:52:31.249632,1.00264185,.00057575,0.2126,79.6470,272.9604,175.3551,0,U,48808,999,1882,0,-.327E-5,0
SXM-8,2021-049A,2026-07-12T02:50:24.747936,1.00270972,.00053645,0.0175,40.4195,350.2379,216.8129,0,U,48838,999,1883,0,-.202E-5,0
TIANLIAN 1-05,2021-063A,2026-07-12T06:44:47.518656,1.00271778,.0000946,1.6560,80.4869,91.8485,235.8831,0,U,49011,999,1832,0,.108E-5,0
STAR ONE D2,2021-069A,2026-07-12T09:45:23.679648,1.00275631,.00027069,0.0120,12.5852,114.5090,239.4732,0,U,49055,999,1819,0,0,0
EUTELSAT QUANTUM,2021-069B,2026-07-12T12:01:38.508096,1.00269928,.00019831,0.0177,329.0468,138.5574,50.8833,0,U,49056,999,1818,0,.127E-5,0
